IRIDIUM 36              
1 24967U 97056C   24320.36691342  .00001147  00000+0  37879-3 0  9999
2 24967  86.3950 262.7716 0002383  79.4767 280.6699 14.37226427421508
IRIDIUM 39              
1 25042U 97069D   24320.45871912  .00001616  00000+0  42400-3 0  9998
2 25042  86.3873 302.7773 0016087 305.2539  54.7159 14.48615454418273
IRIDIUM 38              
1 25043U 97069E   24320.11615384  .00001107  00000+0  36187-3 0  9991
2 25043  86.3933 323.2476 0004166  85.7723 274.3951 14.37705994415453
IRIDIUM 42              
1 25077U 97077A   24320.48871306  .00000968  00000+0  32682-3 0  9995
2 25077  86.3944 328.9974 0002970  92.0501 268.1036 14.35974068410529
IRIDIUM 44              
1 25078U 97077B   24320.46227264  .00001160  00000+0  36368-3 0  9992
2 25078  86.3919 311.4958 0003247  55.3090 304.8415 14.39836415412971
IRIDIUM 45              
1 25104U 97082A   24319.55546657  .00019988  00000+0  92048-3 0  9990
2 25104  86.3615 151.2259 0142726  50.0794 311.2885 15.11438256419508
IRIDIUM 24              
1 25105U 97082B   24319.59752189  .00001108  00000+0  33386-3 0  9999
2 25105  86.3942 171.2468 0013424  69.8922 290.3721 14.41664720412541
IRIDIUM 51              
1 25262U 98018A   24320.08266505  .00030595  00000+0  10966-2 0  9991
2 25262  86.3919 160.3091 0121051 343.8812  15.8592 15.21818801414491
